CCSDS_OMM_VERS = 2.0
CREATION_DATE  = 
ORIGINATOR     = 

OBJECT_NAME    = TJS-21
OBJECT_ID      = 2025-269A
CENTER_NAME    = EARTH
REF_FRAME      = TEME
TIME_SYSTEM    = UTC
MEAN_ELEMENT_THEORY = SGP/SGP4

EPOCH          = 2025-11-22T00:38:55.863744
MEAN_MOTION    = 2.00919486
ECCENTRICITY   = .7516027
INCLINATION    = 51.0640
RA_OF_ASC_NODE = 174.7014
ARG_OF_PERICENTER = 225.0831
MEAN_ANOMALY   = 41.6475

EPHEMERIS_TYPE = 0
CLASSIFICATION_TYPE = U
NORAD_CAT_ID   = 66586
ELEMENT_SET_NO = 999
REV_AT_EPOCH   = 2
BSTAR          = .52951296E-3
MEAN_MOTION_DOT = .2407E-4
MEAN_MOTION_DDOT = 0

CCSDS_OMM_VERS = 2.0
CREATION_DATE  = 
ORIGINATOR     = 

OBJECT_NAME    = CZ-3B R/B
OBJECT_ID      = 2025-269B
CENTER_NAME    = EARTH
REF_FRAME      = TEME
TIME_SYSTEM    = UTC
MEAN_ELEMENT_THEORY = SGP/SGP4

EPOCH          = 2025-11-21T12:42:23.351616
MEAN_MOTION    = 2.01465750
ECCENTRICITY   = .75211444
INCLINATION    = 51.3636
RA_OF_ASC_NODE = 174.5119
ARG_OF_PERICENTER = 224.9566
MEAN_ANOMALY   = 41.7220

EPHEMERIS_TYPE = 0
CLASSIFICATION_TYPE = U
NORAD_CAT_ID   = 66587
ELEMENT_SET_NO = 999
REV_AT_EPOCH   = 2
BSTAR          = .51894215E-3
MEAN_MOTION_DOT = .6929E-4
MEAN_MOTION_DDOT = -.861388E-6

