TJS-21                  
1 66586U 25269A   25326.02703546  .00002407  00000+0  52951-3 0  9997
2 66586  51.0640 174.7014 7516027 225.0831  41.6475  2.00919486    20
CZ-3B R/B               
1 66587U 25269B   25325.52943694  .00006929 -86139-6  51894-3 0  9995
2 66587  51.3636 174.5119 7521144 224.9566  41.7220  2.01465750    22
